SWAS                    
1 25560U 98071A   26068.53487068  .00004636  00000+0  29986-3 0  9991
2 25560  69.8952 124.3662 0004099  14.3215 345.8065 15.08888192482231
STARLINK-3585           
1 51875U 22022Z   26068.25743656 -.00002794  00000+0 -15750-3 0  9998
2 51875  53.2194  10.9734 0001240  96.9709 263.1425 15.08841392223059
